*******************************************************************************
 Revised: July 31, 2013              Mercury                            199 / 1

 PHYSICAL DATA (updated 2018-Aug-15):
  Vol. Mean Radius (km) =  2440+-1        Density (g cm^-3)     = 5.427
  Mass x10^23 (kg)      =     3.302       Volume (x10^10 km^3)  = 6.085  
  Sidereal rot. period  =    58.6463 d    Sid. rot. rate (rad/s)= 0.00000124001
  Mean solar day        =   175.9421 d    Core radius (km)      = ~1600 
  Geometric Albedo      =     0.106       Surface emissivity    = 0.77+-0.06
  GM (km^3/s^2)         = 22031.78        Equatorial radius, Re = 2440 km
  GM 1-sigma (km^3/s^2) =   +-0.91        Mass ratio (Sun/plnt) = 6023682
  Mom. of Inertia       =     0.33        Equ. gravity  m/s^2   = 3.701     
  Atmos. pressure (bar) = < 5x10^-15      Max. angular diam.    = 11.0"   
  Mean Temperature (K)  = 440             Visual mag. V(1,0)    = -0.42 
  Obliquity to orbit[1] =  2.11' +/- 0.1' Hill's sphere rad. Rp = 94.4 
  Sidereal orb. per.    =  0.2408467 y    Mean Orbit vel.  km/s = 47.362 
  Sidereal orb. per.    = 87.969257  d    Escape vel. km/s      =  4.435
                                 Perihelion  Aphelion    Mean
  Solar Constant (W/m^2)         14462       6278        9126
  Maximum Planetary IR (W/m^2)   12700       5500        8000
  Minimum Planetary IR (W/m^2)   6           6           6
*******************************************************************************
 
 
*******************************************************************************
Ephemeris / WWW_USER Mon Oct 26 11:45:25 2020 Pasadena, USA      / Horizons
*******************************************************************************
Target body name: Mercury (199)                   {source: DE431mx}
Center body name: Solar System Barycenter (0)     {source: DE431mx}
Center-site name: BODY CENTER
*******************************************************************************
Start time      : A.D. 2015-Jan-01 00:00:00.0000 TDB
Stop  time      : A.D. 2020-Dec-31 00:00:00.0000 TDB
Step-size       : 1440 minutes
*******************************************************************************
Center geodetic : 0.00000000,0.00000000,0.0000000 {E-lon(deg),Lat(deg),Alt(km)}
Center cylindric: 0.00000000,0.00000000,0.0000000 {E-lon(deg),Dxy(km),Dz(km)}
Center radii    : (undefined)                                                  
Output units    : AU-D
Output type     : GEOMETRIC cartesian states
Output format   : 2 (position and velocity)
Reference frame : Ecliptic of J2000.0
*******************************************************************************
JDTDB
   X     Y     Z
   VX    VY    VZ
*******************************************************************************
$$SOE
2458015.500000000 = A.D. 2017-Sep-19 00:00:00.0000 TDB 
 X =-4.708365047432770E-02 Y = 3.115303838372772E-01 Z = 2.940350554070167E-02
 VX=-3.342306227480123E-02 VY=-3.458555081024562E-03 VZ= 2.782818018488070E-03
2458016.500000000 = A.D. 2017-Sep-20 00:00:00.0000 TDB 
 X =-8.021226159505154E-02 Y = 3.065895646062380E-01 Z = 3.203819049221341E-02
 VX=-3.278314668659468E-02 VY=-6.403534412734268E-03 VZ= 2.483469323737242E-03
2458017.500000000 = A.D. 2017-Sep-21 00:00:00.0000 TDB 
 X =-1.125522741221572E-01 Y = 2.987687660065047E-01 Z = 3.436519789053975E-02
 VX=-3.185040721145307E-02 VY=-9.212387651237124E-03 VZ= 2.168380194682346E-03
2458018.500000000 = A.D. 2017-Sep-22 00:00:00.0000 TDB 
 X =-1.438253200363608E-01 Y = 2.882213215411282E-01 Z = 3.637151955413297E-02
 VX=-3.065452028312754E-02 VY=-1.185189116545556E-02 VZ= 1.842987955151564E-03
2458019.500000000 = A.D. 2017-Sep-23 00:00:00.0000 TDB 
 X =-1.737846794524225E-01 Y = 2.751301436075378E-01 Z = 3.804946768789891E-02
 VX=-2.922878569248664E-02 VY=-1.429616301145654E-02 VZ= 1.512462426671516E-03
2458020.500000000 = A.D. 2017-Sep-24 00:00:00.0000 TDB 
 X =-2.022179638387332E-01 Y = 2.597003151296679E-01 Z = 3.939631568330285E-02
 VX=-2.760827138141615E-02 VY=-1.652670986450112E-02 VZ= 1.181531895502734E-03
2458021.500000000 = A.D. 2017-Sep-25 00:00:00.0000 TDB 
 X =-2.289480416290926E-01 Y = 2.421518741261639E-01 Z = 4.041379343954744E-02
 VX=-2.582817380879589E-02 VY=-1.853201459882735E-02 VZ= 8.543663914170078E-04
2458022.500000000 = A.D. 2017-Sep-26 00:00:00.0000 TDB 
 X =-2.538324728682888E-01 Y = 2.227131860100488E-01 Z = 4.110749392769811E-02
 VX=-2.392248607001611E-02 VY=-2.030679613499173E-02 VZ= 5.345159801704770E-04
2458023.500000000 = A.D. 2017-Sep-27 00:00:00.0000 TDB 
 X =-2.767617828485136E-01 Y = 2.016151634096366E-01 Z = 4.148624249666812E-02
 VX=-2.192300952565059E-02 VY=-2.185107607514910E-02 VZ= 2.248963579295789E-04
2458024.500000000 = A.D. 2017-Sep-28 00:00:00.0000 TDB 
 X =-2.976569167191029E-01 Y = 1.790864656076903E-01 Z = 4.156147108904355E-02
 VX=-1.985869957601931E-02 VY=-2.316917055962608E-02 VZ=-7.218878894331681E-05
2458025.500000000 = A.D. 2017-Sep-29 00:00:00.0000 TDB 
 X =-3.164661913411538E-01 Y = 1.553497039273585E-01 Z = 4.134662853323756E-02
 VX=-1.775530608160928E-02 VY=-2.426869942998859E-02 VZ=-3.549998071842573E-04
2458026.500000000 = A.D. 2017-Sep-30 00:00:00.0000 TDB 
 X =-3.331620122291233E-01 Y = 1.306186018663236E-01 Z = 4.085664730041325E-02
 VX=-1.563525329177910E-02 VY=-2.515967572844651E-02 VZ=-6.222976918366234E-04
2458027.500000000 = A.D. 2017-Oct-01 00:00:00.0000 TDB 
 X =-3.477375654481030E-01 Y = 1.050960093895584E-01 Z = 4.010747776010837E-02
 VX=-1.351770009781657E-02 VY=-2.585371199878349E-02 VZ=-8.732737027043382E-04
2458028.500000000 = A.D. 2017-Oct-02 00:00:00.0000 TDB 
 X =-3.602036365542090E-01 Y = 7.897264548734226E-02 Z = 3.911569359990602E-02
 VX=-1.141872523030400E-02 VY=-2.636335851701371E-02 VZ=-1.107478298850304E-03
2458029.500000000 = A.D. 2017-Oct-03 00:00:00.0000 TDB 
 X =-3.705856571304468E-01 Y = 5.242643613360377E-02 Z = 3.789816677695595E-02
 VX=-9.351590183715787E-03 VY=-2.670157325872529E-02 VZ=-1.324753707083598E-03
2458030.500000000 = A.D. 2017-Oct-04 00:00:00.0000 TDB 
 X =-3.789210371116961E-01 Y = 2.562232027720161E-02 Z = 3.647180693237481E-02
 VX=-7.327042466297402E-03 VY=-2.688131364966827E-02 VZ=-1.525172742362070E-03
2458031.500000000 = A.D. 2017-Oct-05 00:00:00.0000 TDB 
 X =-3.852568085888450E-01 Y =-1.287590592424852E-03 Z = 3.485335827250005E-02
 VX=-5.353631439874908E-03 VY=-2.691523488282950E-02 VZ=-1.708985181129974E-03
2458032.500000000 = A.D. 2017-Oct-06 00:00:00.0000 TDB 
 X =-3.896475834228487E-01 Y =-2.816359732979998E-02 Z = 3.305924612088227E-02
 VX=-3.438017523837078E-03 VY=-2.681547759811458E-02 VZ=-1.876572045563162E-03
2458033.500000000 = A.D. 2017-Oct-07 00:00:00.0000 TDB 
 X =-3.921538113765745E-01 Y =-5.487782323669228E-02 Z = 3.110546532171399E-02
 VX=-1.585262467570905E-03 VY=-2.659352789459454E-02 VZ=-2.028407535139456E-03
2458034.500000000 = A.D. 2017-Oct-08 00:00:00.0000 TDB 
 X =-3.928403159598811E-01 Y =-8.131351376830373E-02 Z = 2.900750314155316E-02
 VX= 2.009062992671652E-04 VY=-2.626013408648121E-02 VZ=-2.165027973029977E-03
2458035.500000000 = A.D. 2017-Oct-09 00:00:00.0000 TDB 
 X =-3.917750802262049E-01 Y =-1.073642756366343E-01 Z = 2.678029005362604E-02
 VX= 1.917860386431180E-03 VY=-2.582526667269095E-02 VZ=-2.287006950491960E-03
2458036.500000000 = A.D. 2017-Oct-10 00:00:00.0000 TDB 
 X =-3.890282530169981E-01 Y =-1.329332926943612E-01 Z = 2.443817264332978E-02
 VX= 3.563864747860107E-03 VY=-2.529811023255779E-02 VZ=-2.394935794185463E-03
2458037.500000000 = A.D. 2017-Oct-11 00:00:00.0000 TDB 
 X =-3.846713465482475E-01 Y =-1.579325457908142E-01 Z = 2.199490374286210E-02
 VX= 5.137900396188225E-03 VY=-2.468707812358977E-02 VZ=-2.489408503024493E-03
2458038.500000000 = A.D. 2017-Oct-12 00:00:00.0000 TDB 
 X =-3.787765979540608E-01 Y =-1.822820556608564E-01 Z = 1.946364572516068E-02
 VX= 6.639513358754547E-03 VY=-2.399984280022258E-02 VZ=-2.571010368861300E-03
2458039.500000000 = A.D. 2017-Oct-13 00:00:00.0000 TDB 
 X =-3.714164698540177E-01 Y =-2.059091615824523E-01 Z = 1.685698362909274E-02
 VX= 8.068687207506140E-03 VY=-2.324337623611416E-02 VZ=-2.640309585428569E-03
2458040.500000000 = A.D. 2017-Oct-14 00:00:00.0000 TDB 
 X =-3.626632677838608E-01 Y =-2.287478437324407E-01 Z = 1.418694543495579E-02
 VX= 9.425736329030788E-03 VY=-2.242399630787901E-02 VZ=-2.697851247105724E-03
2458041.500000000 = A.D. 2017-Oct-15 00:00:00.0000 TDB 
 X =-3.525888551530895E-01 Y =-2.507380936023590E-01 Z = 1.146502735994696E-02
 VX= 1.071121714791318E-02 VY=-2.154741610474779E-02 VZ=-2.744153233806789E-03
2458042.500000000 = A.D. 2017-Oct-16 00:00:00.0000 TDB 
 X =-3.412644491007051E-01 Y =-2.718253342541613E-01 Z = 8.702222502645712E-03
 VX= 1.192585469026313E-02 VY=-2.061879399942288E-02 VZ=-2.779703565372591E-03
2458043.500000000 = A.D. 2017-Oct-17 00:00:00.0000 TDB 
 X =-3.287604831169234E-01 Y =-2.919598903820732E-01 Z = 5.909051542785081E-03
 VX= 1.307048211473047E-02 VY=-1.964278298769888E-02 VZ=-2.804958885846596E-03
2458044.500000000 = A.D. 2017-Oct-18 00:00:00.0000 TDB 
 X =-3.151465245386566E-01 Y =-3.110965069215803E-01 Z = 3.095594508198673E-03
 VX= 1.414599110572176E-02 VY=-1.862357831464681E-02 VZ=-2.820343804236941E-03
2458045.500000000 = A.D. 2017-Oct-19 00:00:00.0000 TDB 
 X =-3.004912369967300E-01 Y =-3.291939141643662E-01 Z = 2.715228654907219E-04
 VX= 1.515329129252778E-02 VY=-1.756496278615964E-02 VZ=-2.826250874177743E-03
2458046.500000000 = A.D. 2017-Oct-20 00:00:00.0000 TDB 
 X =-2.848623795998002E-01 Y =-3.462144368841656E-01 Z =-2.553868615340488E-03
 VX= 1.609327711354721E-02 VY=-1.647034944460669E-02 VZ=-2.823041041215458E-03
